{
  "links" : {
    "next" : "https://api.nasa.gov/neo/rest/v1/feed?start_date=2002-12-16&end_date=2002-12-16&detailed=true&api_key=t0TVs3DtDT2H8Oy2Zy8m2eVrNsAVKAexjcZXUckd",
    "prev" : "https://api.nasa.gov/neo/rest/v1/feed?start_date=2002-12-14&end_date=2002-12-14&detailed=true&api_key=t0TVs3DtDT2H8Oy2Zy8m2eVrNsAVKAexjcZXUckd",
    "self" : "https://api.nasa.gov/neo/rest/v1/feed?start_date=2002-12-15&end_date=2002-12-15&detailed=true&api_key=t0TVs3DtDT2H8Oy2Zy8m2eVrNsAVKAexjcZXUckd"
  },
  "element_count" : 9,
  "near_earth_objects" : {
    "2002-12-15" : [ {
      "links" : {
        "self" : "https://api.nasa.gov/neo/rest/v1/neo/3759293?api_key=t0TVs3DtDT2H8Oy2Zy8m2eVrNsAVKAexjcZXUckd"
      },
      "neo_reference_id" : "3759293",
      "name" : "(2016 RJ20)",
      "nasa_jpl_url" : "http://ssd.jpl.nasa.gov/sbdb.cgi?sstr=3759293",
      "absolute_magnitude_h" : 23.6,
      "estimated_diameter" : {
        "kilometers" : {
          "estimated_diameter_min" : 0.0506471459,
          "estimated_diameter_max" : 0.1132504611
        },
        "meters" : {
          "estimated_diameter_min" : 50.6471458835,
          "estimated_diameter_max" : 113.2504610618
        },
        "miles" : {
          "estimated_diameter_min" : 0.0314706677,
          "estimated_diameter_max" : 0.0703705522
        },
        "feet" : {
          "estimated_diameter_min" : 166.1651821003,
          "estimated_diameter_max" : 371.5566426699
        }
      },
      "is_potentially_hazardous_asteroid" : false,
      "close_approach_data" : [ {
        "close_approach_date" : "2002-12-15",
        "epoch_date_close_approach" : 1039939200000,
        "relative_velocity" : {
          "kilometers_per_second" : "13.2957117228",
          "kilometers_per_hour" : "47864.5622022146",
          "miles_per_hour" : "29741.177552815"
        },
        "miss_distance" : {
          "astronomical" : "0.1237356449",
          "lunar" : "48.1331672668",
          "kilometers" : "18510590",
          "miles" : "11501947"
        },
        "orbiting_body" : "Earth"
      } ],
      "orbital_data" : {
        "orbit_id" : "5",
        "orbit_determination_date" : "2017-04-06 08:23:59",
        "orbit_uncertainty" : "6",
        "minimum_orbit_intersection" : ".00828972",
        "jupiter_tisserand_invariant" : "6.341",
        "epoch_osculation" : "2458000.5",
        "eccentricity" : ".5224785830367583",
        "semi_major_axis" : ".9249897519677948",
        "inclination" : "5.152429791312739",
        "ascending_node_longitude" : "153.3339942975987",
        "orbital_period" : "324.9404732467929",
        "perihelion_distance" : ".4417024170361388",
        "perihelion_argument" : "55.61450521477623",
        "aphelion_distance" : "1.408277086899451",
        "perihelion_time" : "2457888.269176176006",
        "mean_anomaly" : "124.3399942547374",
        "mean_motion" : "1.107895228941146",
        "equinox" : "J2000"
      }
    }, {
      "links" : {
        "self" : "https://api.nasa.gov/neo/rest/v1/neo/2474425?api_key=t0TVs3DtDT2H8Oy2Zy8m2eVrNsAVKAexjcZXUckd"
      },
      "neo_reference_id" : "2474425",
      "name" : "474425 (2002 YF4)",
      "nasa_jpl_url" : "http://ssd.jpl.nasa.gov/sbdb.cgi?sstr=2474425",
      "absolute_magnitude_h" : 18.8,
      "estimated_diameter" : {
        "kilometers" : {
          "estimated_diameter_min" : 0.4619074603,
          "estimated_diameter_max" : 1.0328564805
        },
        "meters" : {
          "estimated_diameter_min" : 461.9074602816,
          "estimated_diameter_max" : 1032.8564805039
        },
        "miles" : {
          "estimated_diameter_min" : 0.2870159005,
          "estimated_diameter_max" : 0.6417870641
        },
        "feet" : {
          "estimated_diameter_min" : 1515.4444719902,
          "estimated_diameter_max" : 3388.6368554964
        }
      },
      "is_potentially_hazardous_asteroid" : false,
      "close_approach_data" : [ {
        "close_approach_date" : "2002-12-15",
        "epoch_date_close_approach" : 1039939200000,
        "relative_velocity" : {
          "kilometers_per_second" : "17.4951895549",
          "kilometers_per_hour" : "62982.6823975759",
          "miles_per_hour" : "39134.989515316"
        },
        "miss_distance" : {
          "astronomical" : "0.4921220419",
          "lunar" : "191.4354858398",
          "kilometers" : "73620416",
          "miles" : "45745604"
        },
        "orbiting_body" : "Earth"
      } ],
      "orbital_data" : {
        "orbit_id" : "56",
        "orbit_determination_date" : "2017-05-29 06:19:20",
        "orbit_uncertainty" : "0",
        "minimum_orbit_intersection" : ".430723",
        "jupiter_tisserand_invariant" : "3.876",
        "epoch_osculation" : "2458000.5",
        "eccentricity" : ".3339567664973582",
        "semi_major_axis" : "1.754712787839229",
        "inclination" : "33.68128387536535",
        "ascending_node_longitude" : "61.71261286721162",
        "orbital_period" : "848.999605671558",
        "perihelion_distance" : "1.168714579080876",
        "perihelion_argument" : "93.56938230077927",
        "aphelion_distance" : "2.340710996597583",
        "perihelion_time" : "2457800.450568542354",
        "mean_anomaly" : "84.82665344442228",
        "mean_motion" : ".4240284654964477",
        "equinox" : "J2000"
      }
    }, {
      "links" : {
        "self" : "https://api.nasa.gov/neo/rest/v1/neo/2482796?api_key=t0TVs3DtDT2H8Oy2Zy8m2eVrNsAVKAexjcZXUckd"
      },
      "neo_reference_id" : "2482796",
      "name" : "482796 (2013 QJ10)",
      "nasa_jpl_url" : "http://ssd.jpl.nasa.gov/sbdb.cgi?sstr=2482796",
      "absolute_magnitude_h" : 19.5,
      "estimated_diameter" : {
        "kilometers" : {
          "estimated_diameter_min" : 0.3346223745,
          "estimated_diameter_max" : 0.7482383761
        },
        "meters" : {
          "estimated_diameter_min" : 334.6223744549,
          "estimated_diameter_max" : 748.2383760735
        },
        "miles" : {
          "estimated_diameter_min" : 0.2079246394,
          "estimated_diameter_max" : 0.464933628
        },
        "feet" : {
          "estimated_diameter_min" : 1097.8424710066,
          "estimated_diameter_max" : 2454.8503937571
        }
      },
      "is_potentially_hazardous_asteroid" : true,
      "close_approach_data" : [ {
        "close_approach_date" : "2002-12-15",
        "epoch_date_close_approach" : 1039939200000,
        "relative_velocity" : {
          "kilometers_per_second" : "27.4620496805",
          "kilometers_per_hour" : "98863.3788498921",
          "miles_per_hour" : "61429.8589303677"
        },
        "miss_distance" : {
          "astronomical" : "0.4708683636",
          "lunar" : "183.1677856445",
          "kilometers" : "70440904",
          "miles" : "43769948"
        },
        "orbiting_body" : "Earth"
      } ],
      "orbital_data" : {
        "orbit_id" : "78",
        "orbit_determination_date" : "2017-09-26 06:51:55",
        "orbit_uncertainty" : "1",
        "minimum_orbit_intersection" : ".0242684",
        "jupiter_tisserand_invariant" : "6.161",
        "epoch_osculation" : "2458000.5",
        "eccentricity" : ".4252201464767748",
        "semi_major_axis" : ".9595421959633043",
        "inclination" : "18.14805013584654",
        "ascending_node_longitude" : "327.4840661508824",
        "orbital_period" : "343.3163948115964",
        "perihelion_distance" : ".5515255228451419",
        "perihelion_argument" : "243.7977576134674",
        "aphelion_distance" : "1.367558869081466",
        "perihelion_time" : "2458168.386997859231",
        "mean_anomaly" : "183.9544625811109",
        "mean_motion" : "1.04859542230006",
        "equinox" : "J2000"
      }
    } ]
  }
}